{
  "type": "FeatureCollection",
  "features": [
    {
      "type": "Feature",
      "properties": {
        "norad_id": 34079,
        "name": "IRIDIUM 33 DEB",
        "group": "iridium-33-debris",
        "lat": -27.682993962110462,
        "lon": 6.321349353432399,
        "alt_km": 620.7362303243663,
        "timestamp": "2025-12-13T16:48:33.094487+00:00",
        "meta_object_name": "IRIDIUM 33 DEB",
        "meta_object_id": "1997-051CN",
        "meta_epoch": "2025-12-13T01:00:32.224032",
        "meta_mean_motion": 14.83541673,
        "meta_eccentricity": 0.00055382,
        "meta_inclination": 86.3782,
        "meta_ra_of_asc_node": 8.5249,
        "meta_arg_of_pericenter": 7.2027,
        "meta_mean_anomaly": 51.4492,
        "meta_ephemeris_type": 0,
        "meta_classification_type": "U",
        "meta_norad_cat_id": 34079,
        "meta_element_set_no": 999,
        "meta_rev_at_epoch": 88982,
        "meta_bstar": 0.0022677142,
        "meta_mean_motion_dot": 0.00018725,
        "meta_mean_motion_ddot": 0,
        "tle_line1": "1 34079U 97051CN  25347.04203963  .00018725  00000+0  22677-2 0  9991",
        "tle_line2": "2 34079  86.3782   8.5249 0005538   7.2027  51.4492 14.83541673889828"
      },
      "geometry": {
        "type": "Point",
        "coordinates": [
          6.321349353432399,
          -27.682993962110462
        ]
      }
    },
    {
      "type": "Feature",
      "properties": {
        "norad_id": 34088,
        "name": "IRIDIUM 33 DEB",
        "group": "iridium-33-debris",
        "lat": 86.28956392035191,
        "lon": 133.16098657917843,
        "alt_km": 585.3747603134407,
        "timestamp": "2025-12-13T16:48:33.094498+00:00",
        "meta_object_name": "IRIDIUM 33 DEB",
        "meta_object_id": "1997-051CX",
        "meta_epoch": "2025-12-12T23:15:52.259040",
        "meta_mean_motion": 14.91405495,
        "meta_eccentricity": 0.00057338,
        "meta_inclination": 86.3851,
        "meta_ra_of_asc_node": 30.6184,
        "meta_arg_of_pericenter": 175.6058,
        "meta_mean_anomaly": 312.8964,
        "meta_ephemeris_type": 0,
        "meta_classification_type": "U",
        "meta_norad_cat_id": 34088,
        "meta_element_set_no": 999,
        "meta_rev_at_epoch": 88745,
        "meta_bstar": 0.0034746874,
        "meta_mean_motion_dot": 0.00034855,
        "meta_mean_motion_ddot": 0,
        "tle_line1": "1 34088U 97051CX  25346.96935485  .00034855  00000+0  34747-2 0  9995",
        "tle_line2": "2 34088  86.3851  30.6184 0005733 175.6058 312.8964 14.91405495887455"
      },
      "geometry": {
        "type": "Point",
        "coordinates": [
          133.16098657917843,
          86.28956392035191
        ]
      }
    },
    {
      "type": "Feature",
      "properties": {
        "norad_id": 34091,
        "name": "IRIDIUM 33 DEB",
        "group": "iridium-33-debris",
        "lat": -62.97567113707508,
        "lon": -106.40013900523341,
        "alt_km": 614.4587159911616,
        "timestamp": "2025-12-13T16:48:33.094508+00:00",
        "meta_object_name": "IRIDIUM 33 DEB",
        "meta_object_id": "1997-051DA",
        "meta_epoch": "2025-12-12T15:24:10.062432",
        "meta_mean_motion": 14.81820135,
        "meta_eccentricity": 0.00333928,
        "meta_inclination": 86.3415,
        "meta_ra_of_asc_node": 66.8784,
        "meta_arg_of_pericenter": 293.6257,
        "meta_mean_anomaly": 66.146,
        "meta_ephemeris_type": 0,
        "meta_classification_type": "U",
        "meta_norad_cat_id": 34091,
        "meta_element_set_no": 999,
        "meta_rev_at_epoch": 87865,
        "meta_bstar": 0.0068724224,
        "meta_mean_motion_dot": 0.0005519,
        "meta_mean_motion_ddot": 0,
        "tle_line1": "1 34091U 97051DA  25346.64178313  .00055190  00000+0  68724-2 0  9990",
        "tle_line2": "2 34091  86.3415  66.8784 0033392 293.6257  66.1460 14.81820135878659"
      },
      "geometry": {
        "type": "Point",
        "coordinates": [
          -106.40013900523341,
          -62.97567113707508
        ]
      }
    },
    {
      "type": "Feature",
      "properties": {
        "norad_id": 34097,
        "name": "IRIDIUM 33 DEB",
        "group": "iridium-33-debris",
        "lat": -31.387196274379786,
        "lon": -1.3389000556278512,
        "alt_km": 730.8016535609404,
        "timestamp": "2025-12-13T16:48:33.094519+00:00",
        "meta_object_name": "IRIDIUM 33 DEB",
        "meta_object_id": "1997-051DG",
        "meta_epoch": "2025-12-13T00:12:56.160576",
        "meta_mean_motion": 14.34780103,
        "meta_eccentricity": 0.00825771,
        "meta_inclination": 86.2011,
        "meta_ra_of_asc_node": 1.2893,
        "meta_arg_of_pericenter": 1.3032,
        "meta_mean_anomaly": 358.8362,
        "meta_ephemeris_type": 0,
        "meta_classification_type": "U",
        "meta_norad_cat_id": 34097,
        "meta_element_set_no": 999,
        "meta_rev_at_epoch": 87123,
        "meta_bstar": 0.0020695009,
        "meta_mean_motion_dot": 6.116e-05,
        "meta_mean_motion_ddot": 0,
        "tle_line1": "1 34097U 97051DG  25347.00898334  .00006116  00000+0  20695-2 0  9998",
        "tle_line2": "2 34097  86.2011   1.2893 0082577   1.3032 358.8362 14.34780103871231"
      },
      "geometry": {
        "type": "Point",
        "coordinates": [
          -1.3389000556278512,
          -31.387196274379786
        ]
      }
    },
    {
      "type": "Feature",
      "properties": {
        "norad_id": 34145,
        "name": "IRIDIUM 33 DEB",
        "group": "iridium-33-debris",
        "lat": -83.2528154444358,
        "lon": -173.84693844872268,
        "alt_km": 797.8490417937655,
        "timestamp": "2025-12-13T16:48:33.094529+00:00",
        "meta_object_name": "IRIDIUM 33 DEB",
        "meta_object_id": "1997-051DY",
        "meta_epoch": "2025-12-12T16:16:44.668992",
        "meta_mean_motion": 14.4228829,
        "meta_eccentricity": 0.00557169,
        "meta_inclination": 86.2122,
        "meta_ra_of_asc_node": 332.5542,
        "meta_arg_of_pericenter": 94.0004,
        "meta_mean_anomaly": 266.7567,
        "meta_ephemeris_type": 0,
        "meta_classification_type": "U",
        "meta_norad_cat_id": 34145,
        "meta_element_set_no": 999,
        "meta_rev_at_epoch": 87637,
        "meta_bstar": 0.0016937605,
        "meta_mean_motion_dot": 5.713e-05,
        "meta_mean_motion_ddot": 0,
        "tle_line1": "1 34145U 97051DY  25346.67829478  .00005713  00000+0  16938-2 0  9994",
        "tle_line2": "2 34145  86.2122 332.5542 0055716  94.0004 266.7567 14.42288290876375"
      },
      "geometry": {
        "type": "Point",
        "coordinates": [
          -173.84693844872268,
          -83.2528154444358
        ]
      }
    },
    {
      "type": "Feature",
      "properties": {
        "norad_id": 34146,
        "name": "IRIDIUM 33 DEB",
        "group": "iridium-33-debris",
        "lat": -74.00854424566664,
        "lon": -23.73082037498785,
        "alt_km": 729.070836976417,
        "timestamp": "2025-12-13T16:48:33.094539+00:00",
        "meta_object_name": "IRIDIUM 33 DEB",
        "meta_object_id": "1997-051DZ",
        "meta_epoch": "2025-12-13T00:49:46.396128",
        "meta_mean_motion": 14.49052828,
        "meta_eccentricity": 0.00255219,
        "meta_inclination": 86.284,
        "meta_ra_of_asc_node": 349.6704,
        "meta_arg_of_pericenter": 220.5759,
        "meta_mean_anomaly": 193.6674,
        "meta_ephemeris_type": 0,
        "meta_classification_type": "U",
        "meta_norad_cat_id": 34146,
        "meta_element_set_no": 999,
        "meta_rev_at_epoch": 88111,
        "meta_bstar": 0.0014073171,
        "meta_mean_motion_dot": 5.383e-05,
        "meta_mean_motion_ddot": 0,
        "tle_line1": "1 34146U 97051DZ  25347.03456477  .00005383  00000+0  14073-2 0  9992",
        "tle_line2": "2 34146  86.2840 349.6704 0025521 220.5759 193.6674 14.49052828881114"
      },
      "geometry": {
        "type": "Point",
        "coordinates": [
          -23.73082037498785,
          -74.00854424566664
        ]
      }
    },
    {
      "type": "Feature",
      "properties": {
        "norad_id": 34159,
        "name": "IRIDIUM 33 DEB",
        "group": "iridium-33-debris",
        "lat": -36.11595139446922,
        "lon": 45.163003619872214,
        "alt_km": 755.4532544577214,
        "timestamp": "2025-12-13T16:48:33.094550+00:00",
        "meta_object_name": "IRIDIUM 33 DEB",
        "meta_object_id": "1997-051EN",
        "meta_epoch": "2025-12-12T15:56:04.942176",
        "meta_mean_motion": 14.38494722,
        "meta_eccentricity": 0.00260005,
        "meta_inclination": 86.351,
        "meta_ra_of_asc_node": 48.2735,
        "meta_arg_of_pericenter": 288.0794,
        "meta_mean_anomaly": 71.7572,
        "meta_ephemeris_type": 0,
        "meta_classification_type": "U",
        "meta_norad_cat_id": 34159,
        "meta_element_set_no": 999,
        "meta_rev_at_epoch": 87958,
        "meta_bstar": 0.00069408057,
        "meta_mean_motion_dot": 2.146e-05,
        "meta_mean_motion_ddot": 0,
        "tle_line1": "1 34159U 97051EN  25346.66394609  .00002146  00000+0  69408-3 0  9999",
        "tle_line2": "2 34159  86.3510  48.2735 0026000 288.0794  71.7572 14.38494722879582"
      },
      "geometry": {
        "type": "Point",
        "coordinates": [
          45.163003619872214,
          -36.11595139446922
        ]
      }
    }
  ]
}